{"type":"Feature","properties":{"MUN":"MARGATE CITY","COUNTY":"ATLANTIC","MUN_LABEL":"Margate City","MUN_TYPE":"City","NAME":"Margate City","GNIS_NAME":"City of Margate City"},"geometry":{"type":"Polygon","coordinates":[[[-74.5019792,39.343171],[-74.5013837,39.3425568],[-74.501382,39.3425549],[-74.5006143,39.3417145],[-74.4976044,39.3385762],[-74.4973668,39.338324],[-74.4967778,39.3377076],[-74.4966599,39.3375827],[-74.4965914,39.3375102],[-74.4960213,39.3369113],[-74.4957085,39.3365873],[-74.4952669,39.3361301],[-74.4949651,39.3358078],[-74.4946382,39.3354693],[-74.4945607,39.3353752],[-74.4944664,39.3352609],[-74.4938461,39.3345025],[-74.4937676,39.3344042],[-74.4933265,39.3338515],[-74.4928403,39.3332428],[-74.492732,39.3331082],[-74.4924967,39.3328098],[-74.4916453,39.3317583],[-74.4914951,39.3315729],[-74.4909922,39.3309511],[-74.4906359,39.3305106],[-74.4914516,39.3300873],[-74.4917851,39.3299071],[-74.4921249,39.3297709],[-74.4924161,39.3296016],[-74.4927914,39.3294051],[-74.4933019,39.3291266],[-74.4937488,39.3289029],[-74.4940896,39.3287227],[-74.4944515,39.3285097],[-74.4947063,39.3284116],[-74.4949045,39.3282915],[-74.495309,39.3280456],[-74.4954077,39.3279845],[-74.4954848,39.3279402],[-74.495731,39.3278118],[-74.4959825,39.3276963],[-74.4963443,39.3275272],[-74.4967346,39.3272977],[-74.4970319,39.3271614],[-74.4973724,39.3270251],[-74.497705,39.3268889],[-74.4980103,39.3267525],[-74.4982368,39.3266544],[-74.4984148,39.3265012],[-74.4987061,39.326255],[-74.4995204,39.3256391],[-74.4995676,39.3256034],[-74.4995835,39.325597],[-74.4998091,39.3255062],[-74.5000015,39.325408],[-74.5000912,39.3253622],[-74.500424,39.3251961],[-74.500946,39.3249469],[-74.5014201,39.3247418],[-74.5019076,39.3245202],[-74.5024092,39.3242875],[-74.5026631,39.3241491],[-74.5029738,39.3239611],[-74.5033685,39.3237233],[-74.5039481,39.3233749],[-74.5042933,39.3231537],[-74.5045543,39.3230044],[-74.5051551,39.3226833],[-74.505586,39.3224399],[-74.5059241,39.3222077],[-74.5063268,39.3219369],[-74.5066861,39.3217322],[-74.5069338,39.3215938],[-74.5072585,39.3214058],[-74.5074983,39.3212894],[-74.5077664,39.3211236],[-74.5080982,39.3209574],[-74.5084866,39.3207361],[-74.5087689,39.3205702],[-74.5090731,39.3204372],[-74.5094472,39.3203038],[-74.5099912,39.3200655],[-74.5103796,39.3198716],[-74.5109739,39.3196496],[-74.511348,39.3194888],[-74.51144,39.319439],[-74.5115454,39.3193726],[-74.5116586,39.3192952],[-74.5116601,39.3192948],[-74.51347,39.3183046],[-74.5144065,39.3177311],[-74.5153987,39.317122],[-74.5157373,39.3169721],[-74.5184092,39.3197666],[-74.5194297,39.3208338],[-74.5229764,39.3245426],[-74.5229482,39.3245489],[-74.5228046,39.3245816],[-74.5226614,39.3246151],[-74.5225186,39.3246494],[-74.5223761,39.3246845],[-74.5222341,39.3247203],[-74.5220925,39.324757],[-74.5219512,39.3247944],[-74.5218104,39.3248326],[-74.5216699,39.3248716],[-74.5215299,39.3249114],[-74.5213902,39.3249519],[-74.5212509,39.3249933],[-74.5211121,39.3250354],[-74.5209736,39.3250783],[-74.5208355,39.325122],[-74.5206979,39.3251665],[-74.5206342,39.3251879],[-74.5205082,39.3252318],[-74.5204551,39.3252499],[-74.5203992,39.3252682],[-74.5203485,39.3252836],[-74.5203233,39.3252906],[-74.5202968,39.3252976],[-74.5202687,39.3253044],[-74.5202383,39.3253113],[-74.5201817,39.3253233],[-74.5200459,39.3253506],[-74.5200101,39.3253582],[-74.519978,39.3253655],[-74.5199449,39.3253736],[-74.5199141,39.3253818],[-74.5198852,39.3253902],[-74.5198578,39.3253989],[-74.5198079,39.3254163],[-74.5197578,39.3254351],[-74.5197077,39.3254554],[-74.5196575,39.3254772],[-74.5196071,39.3255004],[-74.5195567,39.3255251],[-74.5195062,39.3255512],[-74.5194556,39.3255788],[-74.5194049,39.3256079],[-74.5193541,39.3256384],[-74.5193033,39.3256703],[-74.5192524,39.3257037],[-74.5192015,39.3257385],[-74.5191505,39.3257748],[-74.5190994,39.3258125],[-74.5190482,39.3258516],[-74.5190064,39.3258854],[-74.518961,39.325924],[-74.5189176,39.3259625],[-74.5188181,39.3260525],[-74.5187707,39.3260944],[-74.5186295,39.3262178],[-74.5185855,39.3262573],[-74.5185467,39.326293],[-74.5185047,39.326333],[-74.5184666,39.326371],[-74.5184315,39.3264078],[-74.5183992,39.3264436],[-74.5183774,39.3264691],[-74.5183553,39.3264958],[-74.5183328,39.3265238],[-74.5183097,39.3265535],[-74.5182613,39.3266182],[-74.5182024,39.3266999],[-74.5181566,39.326765],[-74.5181166,39.3268233],[-74.5180805,39.3268777],[-74.5180475,39.3269293],[-74.5180169,39.3269792],[-74.5179887,39.3270275],[-74.5179628,39.3270745],[-74.5179391,39.3271203],[-74.5179139,39.3271726],[-74.5178896,39.3272275],[-74.517866,39.3272854],[-74.5178429,39.3273467],[-74.5178205,39.3274107],[-74.5177977,39.3274805],[-74.5177737,39.327558],[-74.5177444,39.3276571],[-74.5177145,39.3277633],[-74.5177008,39.3278147],[-74.517688,39.3278651],[-74.517676,39.3279146],[-74.5176647,39.3279632],[-74.5176543,39.3280111],[-74.5176447,39.3280582],[-74.5176357,39.3281048],[-74.5176276,39.3281507],[-74.5176202,39.328196],[-74.5176136,39.3282407],[-74.5176077,39.3282849],[-74.5176025,39.3283285],[-74.5175981,39.3283717],[-74.5175944,39.3284143],[-74.5175908,39.3284687],[-74.5175883,39.3285252],[-74.517587,39.3285842],[-74.5175869,39.3286464],[-74.5175878,39.3287108],[-74.5175897,39.3287808],[-74.5175928,39.3288583],[-74.5175976,39.3289589],[-74.5176045,39.3290757],[-74.5176134,39.3291908],[-74.5176243,39.3293042],[-74.5176305,39.3293602],[-74.5176373,39.3294158],[-74.5176434,39.3294586],[-74.5176511,39.3295032],[-74.5176606,39.32955],[-74.517672,39.3296],[-74.5176831,39.3296445],[-74.5176961,39.329694],[-74.5177432,39.3298639],[-74.5177609,39.3299298],[-74.5177775,39.3299967],[-74.5177908,39.3300571],[-74.5177974,39.330091],[-74.517803,39.3301238],[-74.5178077,39.3301555],[-74.5178116,39.3301864],[-74.5178146,39.3302165],[-74.5178167,39.3302461],[-74.517818,39.330275],[-74.5178184,39.3303034],[-74.5178177,39.330336],[-74.5178157,39.3303719],[-74.5178124,39.3304123],[-74.517801,39.3305329],[-74.5177985,39.3305713],[-74.5177974,39.3306056],[-74.5177978,39.3306383],[-74.5177997,39.3306748],[-74.5178026,39.3307101],[-74.5178109,39.3307973],[-74.517814,39.3308433],[-74.5178148,39.330867],[-74.5178148,39.3308892],[-74.5178141,39.3309102],[-74.5178127,39.3309303],[-74.5178094,39.3309606],[-74.5178052,39.3309911],[-74.5178001,39.3310219],[-74.5177941,39.3310528],[-74.5177872,39.3310839],[-74.5177794,39.3311152],[-74.5177706,39.3311466],[-74.517761,39.331178],[-74.5177505,39.3312096],[-74.5177391,39.3312412],[-74.5177269,39.3312727],[-74.5177138,39.3313042],[-74.5176999,39.3313356],[-74.5176852,39.3313669],[-74.5176696,39.331398],[-74.5176534,39.3314289],[-74.5176338,39.3314637],[-74.5176118,39.3315002],[-74.517587,39.3315391],[-74.5175585,39.3315819],[-74.5175353,39.3316156],[-74.517512,39.3316482],[-74.5174888,39.3316799],[-74.5174654,39.3317107],[-74.517442,39.3317407],[-74.5174185,39.3317698],[-74.5173948,39.331798],[-74.517371,39.3318255],[-74.517347,39.3318521],[-74.5173229,39.331878],[-74.5172986,39.3319032],[-74.5172741,39.3319275],[-74.5172493,39.3319511],[-74.5172244,39.3319739],[-74.5171993,39.331996],[-74.517174,39.3320174],[-74.5171477,39.3320386],[-74.5171205,39.3320597],[-74.5170925,39.3320807],[-74.5170635,39.3321014],[-74.5170336,39.3321221],[-74.5170029,39.3321425],[-74.5169713,39.3321628],[-74.5169389,39.3321829],[-74.5169056,39.3322028],[-74.5168715,39.3322225],[-74.5168366,39.332242],[-74.516801,39.3322613],[-74.5167645,39.3322804],[-74.5167274,39.3322991],[-74.5166895,39.3323177],[-74.5166509,39.3323359],[-74.5166137,39.3323527],[-74.5165742,39.3323695],[-74.5165321,39.3323865],[-74.5164865,39.3324039],[-74.5164436,39.3324196],[-74.5163954,39.3324367],[-74.5162078,39.3325013],[-74.5161533,39.33252],[-74.5160974,39.3325385],[-74.5160401,39.3325567],[-74.5159811,39.3325747],[-74.5159204,39.3325927],[-74.5158577,39.3326105],[-74.5157927,39.3326283],[-74.5157251,39.3326463],[-74.5155995,39.3326783],[-74.5154594,39.3327123],[-74.515318,39.3327453],[-74.5149413,39.332832],[-74.5148291,39.3328585],[-74.5147287,39.332883],[-74.5146148,39.3329119],[-74.514509,39.3329401],[-74.5144093,39.3329682],[-74.5143144,39.3329964],[-74.5140246,39.3330856],[-74.5139234,39.3331175],[-74.513832,39.3331469],[-74.5137422,39.3331767],[-74.513658,39.3332056],[-74.513578,39.3332339],[-74.5135016,39.3332621],[-74.5134727,39.3332725],[-74.513405,39.333296],[-74.5133734,39.3333078],[-74.5133552,39.3333151],[-74.5133385,39.3333222],[-74.5133231,39.3333295],[-74.5133087,39.3333368],[-74.5132879,39.3333485],[-74.513267,39.3333615],[-74.5132457,39.3333758],[-74.513224,39.3333917],[-74.5132021,39.3334087],[-74.5131789,39.3334279],[-74.5131538,39.3334495],[-74.513122,39.3334777],[-74.5130893,39.3335082],[-74.5130574,39.3335406],[-74.5130262,39.3335747],[-74.5129958,39.3336106],[-74.5129661,39.3336482],[-74.5129373,39.3336877],[-74.5129091,39.3337289],[-74.5128818,39.3337719],[-74.512857,39.333814],[-74.512834,39.3338564],[-74.5128129,39.333899],[-74.512794,39.3339413],[-74.5127831,39.3339686],[-74.5127733,39.3339966],[-74.5127644,39.3340254],[-74.5127565,39.3340552],[-74.5127496,39.3340859],[-74.5127436,39.3341178],[-74.5127384,39.3341509],[-74.5127341,39.3341854],[-74.512731,39.3342174],[-74.5127286,39.334251],[-74.5127267,39.3342865],[-74.5127254,39.3343247],[-74.5127243,39.3343903],[-74.5127242,39.3345262],[-74.5127236,39.3345841],[-74.5127223,39.3346638],[-74.5127223,39.3347172],[-74.5127237,39.3347657],[-74.5127266,39.3348096],[-74.5127314,39.3348525],[-74.5127383,39.3348971],[-74.5127474,39.3349439],[-74.5127589,39.3349937],[-74.5127712,39.3350409],[-74.5127861,39.3350935],[-74.5128441,39.335284],[-74.5128695,39.3353694],[-74.5128882,39.3354293],[-74.5129063,39.3354833],[-74.512924,39.3355323],[-74.5129467,39.3355894],[-74.5129725,39.3356483],[-74.5130014,39.3357095],[-74.513034,39.3357738],[-74.5130688,39.3358388],[-74.5131086,39.3359101],[-74.5131532,39.3359873],[-74.5132241,39.3361078],[-74.5132428,39.3361386],[-74.5132647,39.3361724],[-74.5132874,39.336206],[-74.513348,39.3362942],[-74.5133809,39.3363443],[-74.5133976,39.3363715],[-74.5134124,39.3363972],[-74.5134256,39.3364219],[-74.5134373,39.3364458],[-74.5134497,39.3364741],[-74.513462,39.3365059],[-74.5134736,39.336539],[-74.5135042,39.3366307],[-74.5135144,39.3366585],[-74.5135243,39.3366832],[-74.5135397,39.3367179],[-74.5135574,39.3367537],[-74.5135774,39.3367911],[-74.5136003,39.3368307],[-74.513621,39.3368648],[-74.5136448,39.3369026],[-74.5137241,39.3370239],[-74.5137518,39.3370671],[-74.5137773,39.3371084],[-74.5137994,39.337146],[-74.5138192,39.3371818],[-74.5138368,39.337216],[-74.5138523,39.337249],[-74.5138659,39.3372812],[-74.5138848,39.3373289],[-74.5139002,39.3373695],[-74.5139136,39.3374067],[-74.5139254,39.3374415],[-74.513936,39.3374751],[-74.5139452,39.3375073],[-74.5139531,39.3375383],[-74.5139598,39.3375683],[-74.5139663,39.3376037],[-74.5139715,39.3376409],[-74.5139755,39.3376801],[-74.5139784,39.3377219],[-74.51398,39.3377636],[-74.5139808,39.3378101],[-74.5139802,39.3379535],[-74.5139795,39.3380283],[-74.5139783,39.3380954],[-74.5139763,39.338158],[-74.5139735,39.3382169],[-74.51397,39.3382736],[-74.5139657,39.338328],[-74.5139605,39.3383804],[-74.5139544,39.338431],[-74.5139474,39.3384808],[-74.5139393,39.3385291],[-74.5139304,39.3385761],[-74.5139204,39.3386219],[-74.5139095,39.3386665],[-74.5138975,39.3387099],[-74.5138846,39.3387523],[-74.5138705,39.3387937],[-74.5138557,39.3388325],[-74.5138383,39.3388725],[-74.5138182,39.3389142],[-74.513795,39.3389583],[-74.5137723,39.3389987],[-74.513746,39.3390433],[-74.5136472,39.3392038],[-74.5136081,39.3392694],[-74.5135881,39.3393047],[-74.5135702,39.339338],[-74.5135541,39.3393697],[-74.5135395,39.3394004],[-74.5135249,39.3394334],[-74.5135095,39.3394706],[-74.5134617,39.3395942],[-74.5134435,39.3396396],[-74.5134243,39.3396839],[-74.5134054,39.3397233],[-74.5133848,39.3397629],[-74.5133626,39.3398029],[-74.5133389,39.3398432],[-74.5133137,39.339884],[-74.5132869,39.3399253],[-74.5132584,39.3399672],[-74.5132282,39.3400098],[-74.5131961,39.3400532],[-74.513163,39.3400966],[-74.5131278,39.3401411],[-74.5130904,39.340187],[-74.5130505,39.3402347],[-74.5130083,39.340284],[-74.5129625,39.3403364],[-74.5129119,39.3403933],[-74.5128522,39.3404594],[-74.5128026,39.3405134],[-74.5127524,39.3405666],[-74.5127016,39.3406189],[-74.5126503,39.3406704],[-74.5125985,39.3407209],[-74.5125462,39.3407706],[-74.5124934,39.3408193],[-74.5124402,39.3408671],[-74.5124011,39.3409013],[-74.5123607,39.3409359],[-74.512319,39.3409709],[-74.5122759,39.3410063],[-74.5122313,39.3410422],[-74.5121851,39.3410788],[-74.512137,39.3411162],[-74.512087,39.3411545],[-74.5120534,39.3411796],[-74.512018,39.3412053],[-74.5119803,39.341232],[-74.5119398,39.3412599],[-74.5118562,39.3413159],[-74.511689,39.3414252],[-74.5116194,39.3414714],[-74.5115475,39.3415205],[-74.5114841,39.3415656],[-74.5114418,39.341597],[-74.5113956,39.3416328],[-74.5113508,39.3416683],[-74.5112369,39.34176],[-74.5111735,39.3418096],[-74.5111394,39.3418353],[-74.5111069,39.341859],[-74.5110755,39.3418809],[-74.5110449,39.3419015],[-74.5110059,39.3419263],[-74.5109618,39.3419529],[-74.5109157,39.3419796],[-74.5107881,39.3420522],[-74.5107497,39.3420749],[-74.5107156,39.3420957],[-74.5106786,39.3421192],[-74.5106406,39.3421441],[-74.5106013,39.3421707],[-74.51056,39.3421993],[-74.5104741,39.3422608],[-74.5103013,39.3423877],[-74.5102272,39.3424413],[-74.5101864,39.3424701],[-74.510148,39.3424966],[-74.5101112,39.3425214],[-74.5100756,39.3425448],[-74.5100187,39.3425812],[-74.5099596,39.3426183],[-74.5098981,39.3426563],[-74.5098336,39.3426955],[-74.5097662,39.3427359],[-74.5096945,39.3427784],[-74.5095303,39.3428739],[-74.5093643,39.3429695],[-74.5092461,39.3430369],[-74.5091382,39.3430972],[-74.5090391,39.3431513],[-74.5089417,39.343203],[-74.5088486,39.3432508],[-74.5087586,39.3432954],[-74.508671,39.343337],[-74.508629,39.3433562],[-74.5085848,39.3433758],[-74.508538,39.3433958],[-74.5084879,39.3434168],[-74.5083888,39.3434569],[-74.5081989,39.3435319],[-74.5081216,39.3435628],[-74.508042,39.3435956],[-74.5079711,39.3436258],[-74.5078263,39.3436898],[-74.5076835,39.3437543],[-74.5075427,39.3438193],[-74.507404,39.3438848],[-74.5072673,39.3439508],[-74.5071327,39.3440174],[-74.507,39.3440844],[-74.5068693,39.3441521],[-74.5067593,39.3442102],[-74.5066499,39.3442691],[-74.5065411,39.3443287],[-74.506433,39.3443891],[-74.5063054,39.3444169],[-74.5061776,39.3444441],[-74.5060497,39.3444709],[-74.5059217,39.3444972],[-74.5057935,39.3445229],[-74.5056651,39.3445482],[-74.5055366,39.3445729],[-74.5054079,39.3445971],[-74.5051877,39.3446374],[-74.504967,39.3446761],[-74.5047459,39.3447134],[-74.5045243,39.3447492],[-74.5043023,39.3447834],[-74.5040798,39.3448162],[-74.5038569,39.3448476],[-74.5036336,39.3448774],[-74.5035977,39.3448404],[-74.5019792,39.343171]]]}}
